STARLINK-31667          
1 59609U 24080J   26068.27062851  .00003890  00000+0  15089-3 0  9991
2 59609  42.9959  36.3757 0001098 245.9723 114.1014 15.27556774104512
FLOCK 4G-26             
1 62633U 25009AA  26068.80489479  .00011283  00000+0  42469-3 0  9999
2 62633  97.4054 151.3913 0001988 299.1273  60.9767 15.27281631 63733
