[{"OBJECT_NAME":"STARLINK-31667","OBJECT_ID":"2024-080J","EPOCH":"2026-03-09T06:29:42.303264","MEAN_MOTION":15.27556774,"ECCENTRICITY":0.00010985,"INCLINATION":42.9959,"RA_OF_ASC_NODE":36.3757,"ARG_OF_PERICENTER":245.9723,"MEAN_ANOMALY":114.1014,"EPHEMERIS_TYPE":0,"CLASSIFICATION_TYPE":"U","NORAD_CAT_ID":59609,"ELEMENT_SET_NO":999,"REV_AT_EPOCH":10451,"BSTAR":0.00015089145,"MEAN_MOTION_DOT":3.89e-5,"MEAN_MOTION_DDOT":0},{"OBJECT_NAME":"FLOCK 4G-26","OBJECT_ID":"2025-009AA","EPOCH":"2026-03-09T19:19:02.910720","MEAN_MOTION":15.27281631,"ECCENTRICITY":0.0001988,"INCLINATION":97.4054,"RA_OF_ASC_NODE":151.3913,"ARG_OF_PERICENTER":299.1273,"MEAN_ANOMALY":60.9767,"EPHEMERIS_TYPE":0,"CLASSIFICATION_TYPE":"U","NORAD_CAT_ID":62633,"ELEMENT_SET_NO":999,"REV_AT_EPOCH":6373,"BSTAR":0.00042468806,"MEAN_MOTION_DOT":0.00011283,"MEAN_MOTION_DDOT":0}]
